owner_name,address,city,SWIS,SBL,duplicates,owner_searched,lng,lat,label
1019 GROUP LLC,246 DINGENS,Buffalo,140200,112.19-3-8,,1019 GROUP,-78.804578,42.878491,"246 Dingens, Buffalo, NY, USA"
1025 GROUP  LLC,3901-3909 GENESEE ST,Cheektowaga,143089,92.03-1-1,,1025 GROUP,-78.75475,42.90339,"Cheektowaga, NY, USA"
1025 GROUP  LLC,V/L GENESEE ST,Cheektowaga,143089,92.03-1-32,,1025 GROUP,-78.75475,42.90339,"Cheektowaga, NY, USA"
1093 GROUP LLC,1 DELAWARE RD,Tonawanda,146401,78.23-6-1.1,,1093 GROUP,-78.869309,42.962605,"1 Delaware Road, Kenmore, NY, USA"
1093 GROUP LLC,187 PENNSYLVANIA,Buffalo,140200,110.27-5-2.11,,1093 GROUP,-78.888381,42.898253,"187 Pennsylvania, Buffalo, NY, USA"
1093 GROUP LLC,2047 SHERIDAN DR,Tonawanda,146489,66.33-3-1.1,,1093 GROUP,-78.857769,42.980413,"2047 Sheridan Dr, Tonawanda, NY, USA"
1093 GROUP LLC,2075 SHERIDAN DR,Tonawanda,146489,66.33-3-9.1,,1093 GROUP,-78.85677,42.980382,"2075 Sheridan Drive, Tonawanda, NY, USA"
1093 GROUP LLC,2121 SHERIDAN DR,Tonawanda,146489,66.33-3-11,,1093 GROUP,-78.855119,42.980335,"2121 Sheridan Drive, Tonawanda, NY, USA"
1093 GROUP LLC,2262 SENECA,Buffalo,140200,133.26-4-14,,1093 GROUP,-78.805119,42.851807,"2262 Seneca, Buffalo, NY, USA"
1093 GROUP LLC,24 INDIAN CHURCH,Buffalo,140200,133.26-4-23,,1093 GROUP,-78.805058,42.852444,"24 Indian Church, Buffalo, NY, USA"
1093 GROUP LLC,2565 BAILEY,Buffalo,140200,90.73-5-15.2,,1093 GROUP,-78.813334,42.924357,"2565 Bailey, Buffalo, NY, USA"
1093 GROUP  LLC,286 OHIO,Buffalo,140200,122.10-1-2.1,,1093 GROUP,-78.8692,42.869862,"286 Ohio, Buffalo, NY, USA"
1093 GROUP  LLC,301 OHIO,Buffalo,140200,122.10-2-24,,1093 GROUP,-78.848143,42.905545,"Buffalo, NY, USA"
1093 GROUP LLC,315 ORCHARD PARK RD,West Seneca,146800,134.17-2-6.2,,1093 GROUP,-78.788068,42.835233,"315 Orchard Park Road, West Seneca, NY, USA"
1093 GROUP LLC,3924 HARLEM RD,Amherst,142289,80.13-10-9.11,,1093 GROUP,-78.784533,42.950591,"3924 Harlem Road, Amherst, NY, USA"
1093 GROUP  LLC,399 OHIO,Buffalo,140200,122.10-2-23,,1093 GROUP,-78.869358,42.868543,"399 Ohio, Buffalo, NY, USA"
1093 GROUP  LLC,411 OHIO,Buffalo,140200,122.10-2-7.213,,1093 GROUP,-78.868386,42.866445,"411 Ohio, Buffalo, NY, USA"
1093 GROUP LLC,46 MAGNOLIA,Buffalo,140200,133.49-3-27,,1093 GROUP,-78.810363,42.845625,"46 Magnolia, Buffalo, NY, USA"
1093 GROUP LLC,513 NIAGARA,Buffalo,140200,110.27-5-27.1,,1093 GROUP,-78.888534,42.897982,"513 Niagara, Buffalo, NY, USA"
1093 GROUP  LLC,517 NIAGARA,Buffalo,140200,110.27-5-1.1,,1093 GROUP,-78.888686,42.898143,"517 Niagara, Buffalo, NY, USA"
1093 GROUP LLC,675 ABBOTT,Buffalo,140200,133.49-3-27./A,,1093 GROUP,-78.848143,42.905545,"Buffalo, NY, USA"
1093 GROUP  INC.,817 TONAWANDA,Buffalo,140200,77.57-7-28,,1093 GROUP,-78.904066,42.951,"817 Tonawanda, Buffalo, NY, USA"
1093 GROUP  INC.,821 TONAWANDA,Buffalo,140200,77.57-7-7.2,,1093 GROUP,-78.903768,42.951247,"821 Tonawanda, Buffalo, NY, USA"
1093 GROUP  LLC.,827 TONAWANDA,Buffalo,140200,77.57-7-29.1,,1093 GROUP,-78.904172,42.951208,"827 Tonawanda, Buffalo, NY, USA"
1093 GROUP  LLC,S BENZING RD,Orchard Park,146089,161.06-1-1,,1093 GROUP,-75.4999,43.00035,"New York, USA"
1094 GROUP  LLC,132 LAKEFRONT,Buffalo,140200,110.68-4-1./204,,1094 GROUP,-78.848143,42.905545,"Buffalo, NY, USA"
1094 GROUP  LLC,172 LAKEFRONT,Buffalo,140200,110.60-4-1,,1094 GROUP,-78.885462,42.884341,"172 Lakefront, Buffalo, NY, USA"
1094 GROUP  LLC,21 OJIBWA CIR,Buffalo,140200,110.68-4-9,,1094 GROUP,-78.885461,42.88343,"21 Ojibwa Cir, Buffalo, NY, USA"
1094 GROUP  LLC,25 OJIBWA CIR,Buffalo,140200,110.68-4-10,,1094 GROUP,-78.885588,42.883483,"25 Ojibwa Cir, Buffalo, NY, USA"
1094 GROUP  LLC,29 OJIBWA CIR,Buffalo,140200,110.68-4-11,,1094 GROUP,-78.885726,42.883572,"29 Ojibwa Cir, Buffalo, NY, USA"
1094 GROUP  LLC,35 OJIBWA CIR,Buffalo,140200,110.68-4-12,,1094 GROUP,-78.885813,42.883659,"35 Ojibwa Cir, Buffalo, NY, USA"
1094 GROUP  LLC,37 OJIBWA CIR,Buffalo,140200,110.68-4-13,,1094 GROUP,-78.88589,42.883711,"37 Ojibwa Cir, Buffalo, NY, USA"
1094 GROUP  LLC,41 OJIBWA CIR,Buffalo,140200,110.68-4-14,,1094 GROUP,-78.885986,42.883744,"41 Ojibwa Cir, Buffalo, NY, USA"
1094 GROUP  LLC,43 OJIBWA CIR,Buffalo,140200,110.68-4-15,,1094 GROUP,-78.886074,42.883791,"43 Ojibwa Circle, Buffalo, NY, USA"
1094 GROUP  LLC,47 OJIBWA CIR,Buffalo,140200,110.68-4-16,,1094 GROUP,-78.88612,42.88386,"47 Ojibwa Cir, Buffalo, NY, USA"
1094 GROUP  LLC,51 OJIBWA CIR,Buffalo,140200,110.68-4-17,,1094 GROUP,-78.886239,42.883913,"51 Ojibwa Circle, Buffalo, NY, USA"
1094 GROUP  LLC,55 OJIBWA CIR,Buffalo,140200,110.68-4-18,,1094 GROUP,-78.886561,42.884138,"55 Ojibwa Cir, Buffalo, NY, USA"
1094 GROUP  LLC,86 WATERFRONT CIR,Buffalo,140200,110.68-4-2,,1094 GROUP,-78.885456,42.883782,"86 Waterfront Circle, Buffalo, NY, USA"
1097 GROUP LLC,1350 EGGERT RD,Amherst,142289,67.82-3-9.1,,1097 GROUP,-78.80406,42.965657,"1350 Eggert Road, Eggertsville, NY, USA"
1210 GROUP  LLC,1700 KENMORE,Buffalo,140200,78.37-1-7.2,,1210 GROUP,-78.88101,42.95825,"1700 Kenmore, Buffalo, NY, USA"
1210 GROUP  LLC,3231 SOUTH PARK AVE,Lackawanna,140900,142.78-4-8.11,,1210 GROUP,-78.824328,42.812032,"3231 South Park Avenue, Lackawanna, NY, USA"
1210 GROUP  LLC,3364 BAILEY,Buffalo,140200,79.72-2-26,,1210 GROUP,-78.814049,42.946672,"3364 Bailey, Buffalo, NY, USA"
1210 GROUP  LLC,385 LISBON,Buffalo,140200,79.72-2-25,,1210 GROUP,-78.814353,42.946715,"385 Lisbon, Buffalo, NY, USA"
1234 GROUP LLC,4301 GENESEE ST,Cheektowaga,143089,92.03-1-23,,1234 GROUP,-78.726071,42.932175,"4301 Genesee Street, Cheektowaga, NY, USA"
1234 GROUP  LLC,4313 GENESEE ST,Cheektowaga,143089,92.03-1-19.13,,1234 GROUP,-78.726201,42.931213,"4313 Genesee Street, Cheektowaga, NY, USA"
1234 GROUP  LLC,GENESEE ST,Cheektowaga,143089,92.03-1-22.12,,1234 GROUP,-78.75475,42.90339,"Cheektowaga, NY, USA"
1238 GROUP  LLC,1152 MICHIGAN,Buffalo,140200,100.64-5-21.1,,1238 GROUP,-78.862863,42.904713,"1152 Michigan, Buffalo, NY, USA"
1238 GROUP LLC,1173 LOVEJOY,Buffalo,140200,112.50-5-2,,1238 GROUP,-78.804541,42.889491,"1173 Lovejoy, Buffalo, NY, USA"
1238 GROUP  LLC,1175 LOVEJOY,Buffalo,140200,112.50-5-3,,1238 GROUP,-78.804416,42.889489,"1175 Lovejoy, Buffalo, NY, USA"
1238 GROUP LLC,1177 LOVEJOY,Buffalo,140200,112.50-5-4,,1238 GROUP,-78.80429,42.88949,"1177 Lovejoy, Buffalo, NY, USA"
1238 GROUP LLC,1179 LOVEJOY,Buffalo,140200,112.50-5-5,,1238 GROUP,-78.804096,42.88954,"1179 Lovejoy, Buffalo, NY, USA"
1238 GROUP LLC,1185 LOVEJOY,Buffalo,140200,112.50-5-6,,1238 GROUP,-78.803909,42.889539,"1185 Lovejoy, Buffalo, NY, USA"
1238 GROUP  LLC,136 BEST,Buffalo,140200,100.64-5-27,,1238 GROUP,-78.863222,42.904246,"136 Best, Buffalo, NY, USA"
1238 GROUP  LLC,138 BEST,Buffalo,140200,100.64-5-26,,1238 GROUP,-78.863106,42.904259,"138 Best, Buffalo, NY, USA"
1238 GROUP LLC,206 ONTARIO,Buffalo,140200,77.57-7-14,,1238 GROUP,-78.903434,42.950594,"206 Ontario, Buffalo, NY, USA"
1238 GROUP  LLC,29 ST PAUL,Buffalo,140200,100.71-2-23,,1238 GROUP,-75.4999,43.00035,"New York, USA"
1238 GROUP LLC,30 ST PAUL,Buffalo,140200,100.71-2-16,,1238 GROUP,-75.4999,43.00035,"New York, USA"
1238 GROUP  LLC,31 ST PAUL,Buffalo,140200,100.71-2-24.1,,1238 GROUP,-75.4999,43.00035,"New York, USA"
1238 GROUP LLC,33 ST PAUL,Buffalo,140200,100.71-2-25,,1238 GROUP,-75.4999,43.00035,"New York, USA"
1238 GROUP  LLC,35 ST PAUL,Buffalo,140200,100.71-2-26,,1238 GROUP,-75.4999,43.00035,"New York, USA"
1238 GROUP LLC,36 ST PAUL,Buffalo,140200,100.71-2-14,,1238 GROUP,-75.4999,43.00035,"New York, USA"
1238 GROUP  LLC,39 ST PAUL,Buffalo,140200,100.71-2-27,,1238 GROUP,-75.4999,43.00035,"New York, USA"
1238 GROUP  LLC,41 ST PAUL,Buffalo,140200,100.71-2-28,,1238 GROUP,-75.4999,43.00035,"New York, USA"
1238 GROUP LLC,42 ST PAUL,Buffalo,140200,100.71-2-12,,1238 GROUP,-75.4999,43.00035,"New York, USA"
1238 GROUP  LLC,43 ST PAUL,Buffalo,140200,100.71-2-29,,1238 GROUP,-75.4999,43.00035,"New York, USA"
1238 GROUP  LLC,46 ST PAUL,Buffalo,140200,100.71-2-11,,1238 GROUP,-75.4999,43.00035,"New York, USA"
1238 GROUP LLC,47 ST PAUL,Buffalo,140200,100.71-2-30,,1238 GROUP,-75.4999,43.00035,"New York, USA"
1238 GROUP LLC,49 ST PAUL,Buffalo,140200,100.71-2-31,,1238 GROUP,-75.4999,43.00035,"New York, USA"
1238 GROUP LLC,516 SOUTH PARK,Buffalo,140200,122.32-3-32.11,,1238 GROUP,-78.872107,42.939282,"Park Meadow, Buffalo, NY, USA"
1238 GROUP LLC,518 SOUTH PARK,Buffalo,140200,122.32-3-32.12,,1238 GROUP,-78.872107,42.939282,"Park Meadow, Buffalo, NY, USA"
1238 GROUP LLC,522 SOUTH PARK,Buffalo,140200,122.32-3-31,,1238 GROUP,-78.872107,42.939282,"Park Meadow, Buffalo, NY, USA"
1238 GROUP LLC,523 SOUTH PARK,Buffalo,140200,122.32-4-8.1,,1238 GROUP,-78.872107,42.939282,"Park Meadow, Buffalo, NY, USA"
1238 GROUP LLC,528 SOUTH PARK,Buffalo,140200,122.32-3-30,,1238 GROUP,-78.872107,42.939282,"Park Meadow, Buffalo, NY, USA"
1238 GROUP LLC,534 SOUTH PARK,Buffalo,140200,122.32-3-29,,1238 GROUP,-78.872107,42.939282,"Park Meadow, Buffalo, NY, USA"
1238 GROUP LLC,61 EDNA,Buffalo,140200,100.64-5-18,,1238 GROUP,-78.863337,42.904618,"61 Edna, Buffalo, NY, USA"
1238 GROUP  LLC,65 EDNA,Buffalo,140200,100.64-5-19,,1238 GROUP,-78.863216,42.904616,"65 Edna, Buffalo, NY, USA"
1238 GROUP  LLC,66 BEST,Buffalo,140200,100.64-5-49,,1238 GROUP,-78.865767,42.904293,"66 Best, Buffalo, NY, USA"
1238 GROUP  LLC,69 EDNA,Buffalo,140200,100.64-5-20,,1238 GROUP,-78.8631,42.904628,"69 Edna, Buffalo, NY, USA"
1238 GROUP LLC,809 TONAWANDA,Buffalo,140200,77.57-7-26,,1238 GROUP,-78.903979,42.950833,"809 Tonawanda, Buffalo, NY, USA"
1238 GROUP LLC,815 TONAWANDA,Buffalo,140200,77.57-7-27,,1238 GROUP,-78.904022,42.950919,"815 Tonawanda, Buffalo, NY, USA"
1238 GROUP  LLC,969 ELLICOTT,Buffalo,140200,100.64-5-50,,1238 GROUP,-78.865557,42.904437,"969 Ellicott, Buffalo, NY, USA"
1238 GROUP LLC,973 ELLICOTT,Buffalo,140200,100.64-5-51.1,,1238 GROUP,-78.86554,42.904595,"973 Ellicott, Buffalo, NY, USA"
1239 GROUP LLC,500 MAIN,Buffalo,140200,111.46-10-2.11,,1239 GROUP,-78.874314,42.887627,"500 Main, Buffalo, NY, USA"
1285 MAIN LLC,1285 MAIN,Buffalo,140200,100.55-2-2.1,,1285 MAIN,-78.866073,42.90824,"1285 Main, Buffalo, NY, USA"
1285 MAIN  LLC,38 NORTHAMPTON,Buffalo,140200,100.55-2-8,,1285 MAIN,-78.865553,42.907909,"38 Northampton, Buffalo, NY, USA"
1291 GROUP  LLC,1313 MAIN,Buffalo,140200,100.55-2-14.11,,1291 GROUP,-78.866067,42.909313,"1313 Main, Buffalo, NY, USA"
1291 GROUP LLC,3122 ABBOTT RD,Hamburg,144889,151.02-1-4,,1291 GROUP,-78.79675,42.80028,"3122 Abbott Road, Hamburg, NY, USA"
1291 GROUP LLC,62 RILEY,Buffalo,140200,100.48-5-30,,1291 GROUP,-78.864137,42.909745,"62 Riley, Buffalo, NY, USA"
1291 GROUP LLC,72 RILEY,Buffalo,140200,100.48-5-27,,1291 GROUP,-78.863632,42.909737,"72 Riley, Buffalo, NY, USA"
1291 GROUP LLC,76 RILEY,Buffalo,140200,100.48-5-26,,1291 GROUP,-78.86348,42.909735,"76 Riley, Buffalo, NY, USA"
1291 GROUP LLC,80 RILEY,Buffalo,140200,100.48-5-25,,1291 GROUP,-78.863365,42.909732,"80 Riley, Buffalo, NY, USA"
1291 GROUP LLC,88 RILEY,Buffalo,140200,100.48-5-22,,1291 GROUP,-78.863055,42.909728,"88 Riley, Buffalo, NY, USA"
217 GROUP  LLC,217 DELAVAN EAST,Buffalo,140200,89.82-2-1.111,,217 GROUP,-78.849148,42.921481,"217 Delavan East, Buffalo, NY, USA"
217 GROUP  LLC,227 DELAVAN EAST,Buffalo,140200,89.82-2-2,,217 GROUP,-78.848736,42.921774,"227 Delavan East, Buffalo, NY, USA"
2229 GROUP LLC,285 WASHINGTON,Buffalo,140200,111.13-23-6,,2229 GROUP,-78.874236,42.881838,"285 Washington, Buffalo, NY, USA"
2259 GROUP LLC,148 ALLEN,Buffalo,140200,100.78-1-3,,2259 GROUP,-78.875462,42.899198,"148 Allen, Buffalo, NY, USA"
2259 GROUP LLC,560 DELAWARE,Buffalo,140200,100.78-9-3,,2259 GROUP,-78.874494,42.899679,"560 Delaware, Buffalo, NY, USA"
2468 GROUP INC,284 CONNECTICUT,Buffalo,140200,99.67-3-15.11,,2468 GROUP,-78.889987,42.905255,"284 Connecticut, Buffalo, NY, USA"
2468 GROUP INC,312 LINWOOD AVE,Buffalo,140200,100.47-1-3,,2468 GROUP,-78.868634,42.911057,"312 Linwood Ave, Buffalo, NY, USA"
2468 GROUP INC,492 GRANT,Buffalo,140200,88.67-1-34.1,,2468 GROUP,-78.889932,42.927462,"492 Grant, Buffalo, NY, USA"
2468 GROUP INC,60 CENTRAL AVE,Lancaster,145203,104.74-4-2.1,,2468 GROUP,-78.671081,42.902495,"60 Central Ave, Lancaster, NY, USA"
2468 GROUP INC,83 LAFAYETTE AVE,Buffalo,140200,99.26-3-10,,2468 GROUP,-78.895567,42.919848,"83 Lafayette Ave, Buffalo, NY, USA"
2549 GROUP LLC,4297 ABBOTT RD,Orchard Park,146089,172.05-1-1.1,,2549 GROUP,-75.4999,43.00035,"New York, USA"
3125 GROUP LLC,414 FRANKLIN,Buffalo,140200,111.22-9-4,,3125 GROUP,-78.873504,42.896672,"414 Franklin, Buffalo, NY, USA"
3279 GROUP LLC,40 SWAN,Buffalo,140200,111.13-23-4,,3279 GROUP,-78.873757,42.881791,"40 Swan, Buffalo, NY, USA"
3871 GROUP LLC,1880 SENECA,Buffalo,140200,123.72-4-10,,3871 GROUP,-78.814588,42.859676,"1880 Seneca, Buffalo, NY, USA"
3943 GROUP LLC,3943 N BUFFALO RD,Orchard Park,146089,162.13-1-6.1,,3943 GROUP,-75.4999,43.00035,"New York, USA"
4100 GROUP LLC,41 COLUMBIA,Buffalo,140200,122.05-7-8.11,,4100 GROUP,-78.872232,42.873413,"41 Columbia, Buffalo, NY, USA"
4215 GROUP  INC.,1244 SENECA,Buffalo,140200,123.29-4-24,,4215 GROUP,-78.832413,42.870123,"1244 Seneca, Buffalo, NY, USA"
4215 GROUP LLC,1662 GENESEE,Buffalo,140200,101.47-5-16,,4215 GROUP,-78.819477,42.910555,"1662 Genesee, Buffalo, NY, USA"
4215 GROUP LLC,2016 BAILEY,Buffalo,140200,101.56-4-4,,4215 GROUP,-78.814054,42.909334,"2016 Bailey, Buffalo, NY, USA"
4215 GROUP LLC,404 GERMANIA,Buffalo,140200,123.69-2-1,,4215 GROUP,-78.835129,42.858328,"404 Germania, Buffalo, NY, USA"
4215 GROUP  LLC,514 SOUTH PARK,Buffalo,140200,122.32-3-32.2,,4215 GROUP,-78.872107,42.939282,"Park Meadow, Buffalo, NY, USA"
4215 GROUP LLC,605 GENESEE,Buffalo,140200,111.26-5-1,,4215 GROUP,-78.853599,42.896015,"605 Genesee, Buffalo, NY, USA"
4215 GROUP LLC,71 CHICAGO,Buffalo,140200,122.10-2-17,,4215 GROUP,-78.868441,42.870075,"71 Chicago, Buffalo, NY, USA"
4215 GROUP LLC,73 CHICAGO,Buffalo,140200,122.10-2-18,,4215 GROUP,-78.86842,42.870148,"73 Chicago, Buffalo, NY, USA"
4215 GROUP  LLC,75 CHICAGO,Buffalo,140200,122.10-2-16.2,,4215 GROUP,-78.830177,42.857189,"75 Buffalo, Buffalo, NY, USA"
4216 GROUP  LLC,11 CHICAGO,Buffalo,140200,122.10-2-15,,4216 GROUP,-73.229952,40.739838,"11 Chicago Court, Islip, NY, USA"
4216 GROUP  LLC,300 OHIO,Buffalo,140200,122.10-2-14,,4216 GROUP,-78.868098,42.869071,"300 Ohio, Buffalo, NY, USA"
4216 GROUP  LLC,326 OHIO,Buffalo,140200,122.10-2-13,,4216 GROUP,-78.868303,42.868535,"326 Ohio, Buffalo, NY, USA"
4216 GROUP  LLC,328 OHIO,Buffalo,140200,122.10-2-12,,4216 GROUP,-78.868303,42.868468,"328 Ohio, Buffalo, NY, USA"
4216 GROUP  LLC,340 OHIO,Buffalo,140200,122.10-2-11,,4216 GROUP,-78.868272,42.86821,"340 Ohio, Buffalo, NY, USA"
4216 GROUP  LLC,354 OHIO,Buffalo,140200,122.10-2-10,,4216 GROUP,-78.868008,42.868098,"354 Ohio, Buffalo, NY, USA"
4216 GROUP  LLC,49 MACKINAW,Buffalo,140200,122.10-2-19,,4216 GROUP,-78.867945,42.869957,"49 Mackinaw, Buffalo, NY, USA"
4216 GROUP  LLC,53 MACKINAW,Buffalo,140200,122.10-2-20,,4216 GROUP,-78.867887,42.869603,"53 Mackinaw, Buffalo, NY, USA"
4216 GROUP  LLC,60 MACKINAW,Buffalo,140200,122.10-2-21,,4216 GROUP,-78.867244,42.870304,"60 Mackinaw, Buffalo, NY, USA"
4592 SENECA STREET  LLC,4592 SENECA ST,West Seneca,146800,135.18-2-27.11,,4592 SENECA STREET,-78.733575,42.83174,"4592 Seneca Street, West Seneca, NY, USA"
4628 GROUP  INC.,1008 MAIN,Buffalo,140200,100.71-6-1.1,,4628 GROUP,-78.869763,42.90166,"1008 Main, Buffalo, NY, USA"
4628 GROUP  INC.,189 PEARL NORTH,Buffalo,140200,100.71-6-13,,4628 GROUP,-78.852713,42.938185,"North Buffalo, Buffalo, NY, USA"
4628 GROUP  INC.,190 FULTON,Buffalo,140200,122.24-2-1,,4628 GROUP,-78.863427,42.872841,"190 Fulton, Buffalo, NY, USA"
4628 GROUP INC,30 COURT,Buffalo,140200,111.53-3-3.1,,4628 GROUP,-78.875881,42.885679,"30 Court, Buffalo, NY, USA"
4628 GROUP INC.,4018 SENECA ST,West Seneca,146800,143.08-1-14.121,,4628 GROUP,-78.757087,42.834151,"West Seneca, NY, USA"
4628 GROUP INC,408 SOUTH PARK,Buffalo,140200,122.32-1-1.11,,4628 GROUP,-78.872107,42.939282,"Park Meadow, Buffalo, NY, USA"
4628 GROUP INC,487 SOUTH PARK,Buffalo,140200,122.32-5-18,,4628 GROUP,-78.872107,42.939282,"Park Meadow, Buffalo, NY, USA"
4628 GROUP INC,845 ABBOTT,Buffalo,140200,133.57-3-21.1,,4628 GROUP,-78.80907,42.841453,"845 Abbott, Buffalo, NY, USA"
4646 GENESEE LLC,4646 GENESEE ST,Cheektowaga,143089,92.02-2-15,,4646 GENESEE,-78.714036,42.935463,"4646 Genesee St, Cheektowaga, NY, USA"
4858 GROUP  LP,456 MAIN,Buffalo,140200,111.13-5-4.1,,4858 GROUP,-78.874728,42.886696,"456 Main, Buffalo, NY, USA"
5000 GROUP LLC,36 S FOREST RD,Amherst,142289,80.08-9-24,,5000 GROUP,-78.758659,42.959355,"36 S Forest Rd, Amherst, NY, USA"
5000 GROUP LLC,37 LINWOOD AVE,Amherst,142289,80.08-9-8,,5000 GROUP,-78.757604,42.959624,"37 Linwood Avenue, Amherst, NY, USA"
5000 GROUP LLC,43 LINWOOD AVE,Amherst,142289,80.08-9-9,,5000 GROUP,-78.757578,42.959469,"43 Linwood Avenue, Amherst, NY, USA"
5000 GROUP LLC,44 S FOREST RD,Amherst,142289,80.08-9-23,,5000 GROUP,-78.758661,42.959203,"44 S Forest Rd, Amherst, NY, USA"
5000 GROUP LLC,5195 MAIN ST,Amherst,142289,80.08-9-1.1,,5000 GROUP,-78.758964,42.959808,"5195 Main Street, Amherst, NY, USA"
5182 GROUP LLC,24 JOHNSON PK,Buffalo,140200,111.37-3-3,,5182 GROUP,-78.877265,42.891974,"24 Johnson Pk, Buffalo, NY, USA"
5277 GROUP LLC,199 SCOTT,Buffalo,140200,122.23-1-2.1,,5277 GROUP,-78.86932,42.875631,"199 Scott, Buffalo, NY, USA"
5379 GROUP INC,1240 DELAWARE,Buffalo,140200,100.23-3-9.1,,5379 GROUP,-78.869117,42.917916,"1240 Delaware, Buffalo, NY, USA"
6253 GROUP INC,1005 ABBOTT,Buffalo,140200,133.74-1-6.1,,6253 GROUP,-78.807653,42.836997,"1005 Abbott, Buffalo, NY, USA"
6253 GROUP  INC,39 HAMPSHIRE,Buffalo,140200,99.57-2-3,,6253 GROUP,-78.898806,42.909301,"39 Hampshire, Buffalo, NY, USA"
6253 GROUP INC,39 PARADE CIR EAST,Buffalo,140200,101.61-7-1.1,,6253 GROUP,-78.834614,42.903928,"39 Parade Cir East, Buffalo, NY, USA"
6253 GROUP INC,51 BROADWAY,Buffalo,140200,111.54-3-1,,6253 GROUP,-78.870892,42.885877,"51 Broadway, Buffalo, NY, USA"
6253 GROUP INC,553 DELAWARE,Buffalo,140200,100.78-2-1,,6253 GROUP,-78.87352,42.899166,"553 Delaware, Buffalo, NY, USA"
6253 GROUP INC,866 PROSPECT,Buffalo,140200,99.57-2-6,,6253 GROUP,-78.898468,42.909196,"866 Prospect, Buffalo, NY, USA"
6253 GROUP INC,876 PROSPECT,Buffalo,140200,99.57-2-5,,6253 GROUP,-78.898563,42.909365,"876 Prospect, Buffalo, NY, USA"
6253 GROUP  INC.,928 BROADWAY,Buffalo,140200,111.36-2-25.1,,6253 GROUP,-78.840346,42.89332,"928 Broadway, Buffalo, NY, USA"
6253 GROUP INC,955 NIAGARA,Buffalo,140200,99.57-2-1.1,,6253 GROUP,-78.898954,42.909043,"955 Niagara, Buffalo, NY, USA"
6373 GROUP LLC,938 DELAWARE,Buffalo,140200,100.46-2-17,,6373 GROUP,-78.871493,42.909537,"938 Delaware, Buffalo, NY, USA"
7170 GROUP  LLC,2408 MAIN,Buffalo,140200,89.43-2-21,,7170 GROUP,-78.844144,42.935425,"2408 Main, Buffalo, NY, USA"
7170 GROUP  LLC,2450 MAIN,Buffalo,140200,89.43-2-20,,7170 GROUP,-78.843726,42.93541,"2450 Main, Buffalo, NY, USA"
7170 GROUP  LLC,2456 MAIN,Buffalo,140200,89.43-2-19,,7170 GROUP,-78.843698,42.935572,"2456 Main, Buffalo, NY, USA"
7170 GROUP  LLC,2458 MAIN,Buffalo,140200,89.43-2-18,,7170 GROUP,-78.843622,42.935729,"2458 Main, Buffalo, NY, USA"
7170 GROUP  LLC,27 JEWETT PKWY,Buffalo,140200,89.43-2-22,,7170 GROUP,-78.844487,42.935704,"27 Jewett Pkwy, Buffalo, NY, USA"
810 GROUP  LLC,25 BOIES ALY,Aurora,142401,175.07-1-7.1,,810 GROUP,-78.632173,42.765561,"25 Boies Aly, East Aurora, NY, USA"
8112 GROUP  LLC,1005 MCKINLEY PKWY,Buffalo,140200,123.71-1-6,,8112 GROUP,-78.824444,42.858599,"1005 McKinley Parkway, Buffalo, NY, USA"
8112 GROUP LLC,207 HURON WEST,Buffalo,140200,111.37-7-17,,8112 GROUP,-78.881106,42.890264,"207 Huron West, Buffalo, NY, USA"
8112 GROUP LLC,3405 BIG TREE RD,Hamburg,144889,159.14-3-13,,8112 GROUP,-78.861444,42.772106,"3405 Big Tree Road, Hamburg, NY, USA"
8112 GROUP LLC,4100 ST FRANCIS DR,Hamburg,144889,159.14-2-6,,8112 GROUP,-78.851605,42.735268,"Hamburg, NY, USA"
8112 GROUP INC,4973 CLARK ST,Hamburg,144889,183.12-1-1,,8112 GROUP,-78.798194,42.740161,"4973 Clark Street, Hamburg, NY, USA"
8112 GROUP LLC,ST FRANCIS DR,Hamburg,144889,159.14-2-7.2,,8112 GROUP,-78.851605,42.735268,"Hamburg, NY, USA"
8246 GROUP INC.,878 MCKINLEY PKWY,Buffalo,140200,123.71-7-1,,8246 GROUP,-78.824618,42.856982,"878 McKinley Parkway, Buffalo, NY, USA"
84 GROUP INC,1016 JEFFERSON,Buffalo,140200,100.73-3-15,,84 GROUP,-78.85444,42.902748,"1016 Jefferson, Buffalo, NY, USA"
84 GROUP INC,1061 ELLICOTT,Buffalo,140200,100.56-6-36,,84 GROUP,-78.864762,42.906932,"1061 Ellicott, Buffalo, NY, USA"
84 GROUP INC.,1063 ELLICOTT,Buffalo,140200,100.56-6-37,,84 GROUP,-78.864748,42.907013,"1063 Ellicott, Buffalo, NY, USA"
84 GROUP INC.,119 LANG,Buffalo,140200,101.27-8-2,,84 GROUP,-78.803303,42.918718,"119 Lang, Buffalo, NY, USA"
84 GROUP INC,1199 MICHIGAN,Buffalo,140200,100.64-2-42,,84 GROUP,-78.862251,42.905878,"1199 Michigan, Buffalo, NY, USA"
84 GROUP INC,120 CHICAGO,Buffalo,140200,122.31-4-13.1,,84 GROUP,-78.869317,42.871368,"120 Chicago, Buffalo, NY, USA"
84 GROUP INC,1241 SENECA,Buffalo,140200,123.37-4-3,,84 GROUP,-78.832822,42.869653,"1241 Seneca, Buffalo, NY, USA"
84 GROUP INC,143 JERSEY,Buffalo,140200,99.83-7-16.2,,84 GROUP,-78.891201,42.899249,"143 Jersey, Buffalo, NY, USA"
84 GROUP INC,1435 BROADWAY,Buffalo,140200,112.23-8-2,,84 GROUP,-78.821897,42.89557,"1435 Broadway, Buffalo, NY, USA"
84 GROUP INC,148 HUDSON,Buffalo,140200,110.27-4-19.1,,84 GROUP,-78.88846,42.896477,"148 Hudson, Buffalo, NY, USA"
84 GROUP INC,1513 SENECA,Buffalo,140200,123.47-5-1,,84 GROUP,-78.823934,42.866281,"1513 Seneca, Buffalo, NY, USA"
84 GROUP INC.,1535 FILLMORE,Buffalo,140200,100.36-6-29,,84 GROUP,-78.838727,42.915441,"1535 Fillmore, Buffalo, NY, USA"
84 GROUP  INC.,1535 SOUTH PARK,Buffalo,140200,123.78-2-46,,84 GROUP,-78.872107,42.939282,"Park Meadow, Buffalo, NY, USA"
84 GROUP INC,1698 BAILEY,Buffalo,140200,101.80-6-3,,84 GROUP,-78.814237,42.900711,"1698 Bailey, Buffalo, NY, USA"
84 GROUP INC.,1744 GENESEE,Buffalo,140200,101.40-2-39,,84 GROUP,-78.816873,42.911626,"1744 Genesee, Buffalo, NY, USA"
84 GROUP INC.,1773 GENESEE,Buffalo,140200,101.48-5-1,,84 GROUP,-78.815739,42.911541,"1773 Genesee, Buffalo, NY, USA"
84 GROUP  INC.,178 BENNETT ST,Buffalo,140200,111.56-2-10,,84 GROUP,-78.863339,42.887028,"178 Bennett Street, Buffalo, NY, USA"
84 GROUP  INC.,182 BENNETT ST,Buffalo,140200,111.56-2-9,,84 GROUP,-78.863357,42.887099,"182 Bennett St, Buffalo, NY, USA"
84 GROUP INC,2022 SENECA,Buffalo,140200,123.81-3-20.1,,84 GROUP,-78.810956,42.856791,"2022 Seneca, Buffalo, NY, USA"
84 GROUP INC.,2156 GENESEE,Buffalo,140200,101.27-8-38,,84 GROUP,-78.803315,42.918068,"2156 Genesee, Buffalo, NY, USA"
84 GROUP INC.,27 WALDEN,Buffalo,140200,101.69-2-2,,84 GROUP,-78.835148,42.903341,"27 Walden, Buffalo, NY, USA"
84 GROUP  INC.,271 NORTH ST,Buffalo,140200,100.61-5-30,,84 GROUP,-78.879295,42.903587,"271 North Street, Buffalo, NY, USA"
84 GROUP INC.,271 SOUTH PARK,Buffalo,140200,122.31-4-4,,84 GROUP,-78.872107,42.939282,"Park Meadow, Buffalo, NY, USA"
84 GROUP INC.,275 SOUTH PARK,Buffalo,140200,122.31-4-5,,84 GROUP,-78.872107,42.939282,"Park Meadow, Buffalo, NY, USA"
84 GROUP INC.,277 SOUTH PARK,Buffalo,140200,122.31-4-6,,84 GROUP,-78.872107,42.939282,"Park Meadow, Buffalo, NY, USA"
84 GROUP  INC.,293 JEFFERSON,Buffalo,140200,111.66-13-34,,84 GROUP,-78.853618,42.883131,"293 Jefferson, Buffalo, NY, USA"
84 GROUP INC,297 JEFFERSON,Buffalo,140200,111.66-13-35,,84 GROUP,-78.853685,42.883219,"297 Jefferson, Buffalo, NY, USA"
84 GROUP INC.,303 SOUTH PARK,Buffalo,140200,122.31-4-7,,84 GROUP,-78.872107,42.939282,"Park Meadow, Buffalo, NY, USA"
84 GROUP  INC.,306 SOUTH PARK,Buffalo,140200,122.31-1-9,,84 GROUP,-78.872107,42.939282,"Park Meadow, Buffalo, NY, USA"
84 GROUP INC,314 GRIDER,Buffalo,140200,90.70-2-8,,84 GROUP,-78.829459,42.92322,"314 Grider, Buffalo, NY, USA"
84 GROUP  INC.,315 FULTON,Buffalo,140200,122.32-3-8,,84 GROUP,-78.859598,42.871632,"315 Fulton, Buffalo, NY, USA"
84 GROUP  INC,351 SWAN,Buffalo,140200,111.72-1-22,,84 GROUP,-78.862637,42.879365,"351 Swan, Buffalo, NY, USA"
84 GROUP  INC.,376 LANDON,Buffalo,140200,100.52-5-37,,84 GROUP,-78.839831,42.910282,"376 Landon, Buffalo, NY, USA"
84 GROUP INC,384 FULTON,Buffalo,140200,122.33-5-23,,84 GROUP,-78.856856,42.871752,"384 Fulton, Buffalo, NY, USA"
84 GROUP INC.,418 BAILEY,Buffalo,140200,123.09-4-9,,84 GROUP,-78.823791,42.867208,"418 Bailey, Buffalo, NY, USA"
84 GROUP INC,422 FULTON,Buffalo,140200,122.33-2-6,,84 GROUP,-78.855401,42.871501,"422 Fulton, Buffalo, NY, USA"
84 GROUP  INC.,429 SWAN,Buffalo,140200,111.81-1-5,,84 GROUP,-78.859814,42.878875,"429 Swan, Buffalo, NY, USA"
84 GROUP INC.,432 SENECA,Buffalo,140200,111.81-8-33,,84 GROUP,-78.860368,42.878041,"432 Seneca, Buffalo, NY, USA"
84 GROUP  INC.,436 SYCAMORE,Buffalo,140200,111.33-4-33,,84 GROUP,-78.854595,42.893073,"436 Sycamore, Buffalo, NY, USA"
84 GROUP  INC,438 GENESEE,Buffalo,140200,111.33-1-17,,84 GROUP,-78.859473,42.894243,"438 Genesee, Buffalo, NY, USA"
84 GROUP INC.,446 BUSTI,Buffalo,140200,110.27-9-5,,84 GROUP,-78.89164,42.896745,"446 Busti, Buffalo, NY, USA"
84 GROUP INC,462 NIAGARA,Buffalo,140200,110.27-4-18,,84 GROUP,-78.888154,42.89655,"462 Niagara, Buffalo, NY, USA"
84 GROUP  INC,472 JEFFERSON,Buffalo,140200,111.49-4-22,,84 GROUP,-78.854288,42.887931,"472 Jefferson, Buffalo, NY, USA"
84 GROUP INC,473 SOUTH PARK,Buffalo,140200,122.32-5-15,,84 GROUP,-78.872107,42.939282,"Park Meadow, Buffalo, NY, USA"
84 GROUP INC.,474 JEFFERSON,Buffalo,140200,111.49-4-21,,84 GROUP,-78.854286,42.888008,"474 Jefferson, Buffalo, NY, USA"
84 GROUP INC.,475 SOUTH PARK,Buffalo,140200,122.32-5-16,,84 GROUP,-78.872107,42.939282,"Park Meadow, Buffalo, NY, USA"
84 GROUP INC.,479 SOUTH PARK,Buffalo,140200,122.32-5-17,,84 GROUP,-78.872107,42.939282,"Park Meadow, Buffalo, NY, USA"
84 GROUP INC.,48 ABBOTT,Buffalo,140200,123.70-3-21,,84 GROUP,-78.826666,42.856946,"48 Abbott, Buffalo, NY, USA"
84 GROUP INC.,495 SOUTH PARK,Buffalo,140200,122.32-5-20,,84 GROUP,-78.872107,42.939282,"Park Meadow, Buffalo, NY, USA"
84 GROUP INC.,50 ABBOTT,Buffalo,140200,123.70-3-20,,84 GROUP,-78.826538,42.856914,"50 Abbott, Buffalo, NY, USA"
84 GROUP  INC.,505 SOUTH PARK,Buffalo,140200,122.32-5-23,,84 GROUP,-78.872107,42.939282,"Park Meadow, Buffalo, NY, USA"
84 GROUP INC.,513 SOUTH PARK,Buffalo,140200,122.32-4-5,,84 GROUP,-78.872107,42.939282,"Park Meadow, Buffalo, NY, USA"
84 GROUP INC.,515 SOUTH PARK,Buffalo,140200,122.32-4-6,,84 GROUP,-78.872107,42.939282,"Park Meadow, Buffalo, NY, USA"
84 GROUP  INC.,57 SYCAMORE,Buffalo,140200,111.47-6-4,,84 GROUP,-78.867635,42.888443,"57 Sycamore, Buffalo, NY, USA"
84 GROUP INC.,584 NIAGARA,Buffalo,140200,99.83-7-18,,84 GROUP,-78.89087,42.899359,"584 Niagara, Buffalo, NY, USA"
84 GROUP INC,586 NIAGARA,Buffalo,140200,99.83-7-17,,84 GROUP,-78.890931,42.899424,"586 Niagara, Buffalo, NY, USA"
84 GROUP  INC.,588 SOUTH PARK,Buffalo,140200,122.33-4-18,,84 GROUP,-78.872107,42.939282,"Park Meadow, Buffalo, NY, USA"
84 GROUP  INC.,590 SOUTH PARK,Buffalo,140200,122.33-4-17,,84 GROUP,-78.872107,42.939282,"Park Meadow, Buffalo, NY, USA"
84 GROUP INC,608 BROADWAY,Buffalo,140200,111.42-3-36,,84 GROUP,-78.851601,42.890587,"608 Broadway, Buffalo, NY, USA"
84 GROUP INC,620 BROADWAY,Buffalo,140200,111.42-3-33,,84 GROUP,-78.851191,42.890697,"620 Broadway, Buffalo, NY, USA"
84 GROUP INC,675 JEFFERSON,Buffalo,140200,111.34-1-35,,84 GROUP,-78.853647,42.893422,"675 Jefferson, Buffalo, NY, USA"
84 GROUP INC,688 GENESEE,Buffalo,140200,111.26-1-31,,84 GROUP,-78.851214,42.897673,"688 Genesee, Buffalo, NY, USA"
84 GROUP  INC.,707 WILLIAM,Buffalo,140200,111.67-3-6,,84 GROUP,-78.845139,42.884883,"707 William, Buffalo, NY, USA"
84 GROUP  INC.,744 WILLIAM,Buffalo,140200,111.59-5-36,,84 GROUP,-78.843783,42.885322,"744 William, Buffalo, NY, USA"
84 GROUP INC,862 SYCAMORE,Buffalo,140200,100.84-3-4,,84 GROUP,-78.839531,42.897809,"862 Sycamore, Buffalo, NY, USA"
84 GROUP  INC.,87 HAMBURG,Buffalo,140200,122.49-7-24,,84 GROUP,-78.859367,42.866544,"87 Hamburg, Buffalo, NY, USA"
9187 GROUP LLC,1395 DELAWARE,Buffalo,140200,89.79-3-40,,9187 GROUP,-78.866936,42.922073,"1395 Delaware, Buffalo, NY, USA"
9187 GROUP  LLC,173 ELM,Buffalo,140200,111.55-7-21,,9187 GROUP,-78.868744,42.88585,"173 Elm, Buffalo, NY, USA"
9187 GROUP  LLC,390 MAIN ST,Aurora,142401,164.20-3-39,,9187 GROUP,-78.620358,42.768363,"390 Main Street, East Aurora, NY, USA"
9187 GROUP  LLC,394 MAIN ST,Aurora,142401,164.20-3-38.1,,9187 GROUP,-78.620068,42.768256,"394 Main Street, East Aurora, NY, USA"
9187 GROUP  LLC,474 MICHIGAN,Buffalo,140200,111.55-7-18,,9187 GROUP,-78.868262,42.885545,"474 Michigan, Buffalo, NY, USA"
9187 GROUP  LLC,492 MICHIGAN,Buffalo,140200,111.55-7-17,,9187 GROUP,-78.868181,42.885807,"492 Michigan, Buffalo, NY, USA"
9271 GROUP  LLC,1014 NIAGARA,Buffalo,140200,99.49-6-4,,9271 GROUP,-78.900946,42.911339,"1014 Niagara, Buffalo, NY, USA"
9271 GROUP  LLC,1050 NIAGARA,Buffalo,140200,99.49-6-2,,9271 GROUP,-78.900554,42.912145,"1050 Niagara, Buffalo, NY, USA"
9271 GROUP  LLC,1054 NIAGARA,Buffalo,140200,99.49-6-10,,9271 GROUP,-78.901128,42.91215,"1054 Niagara, Buffalo, NY, USA"
9271 GROUP  LLC,1088 NIAGARA,Buffalo,140200,99.41-1-15,,9271 GROUP,-78.900529,42.912664,"1088 Niagara, Buffalo, NY, USA"
9271 GROUP  LLC,960 BUSTI,Buffalo,140200,99.57-4-4,,9271 GROUP,-78.900576,42.909136,"960 Busti, Buffalo, NY, USA"
9274 GROUP  INC,1076 GENESEE,Buffalo,140200,100.76-4-1.21,,9274 GROUP,-78.838562,42.902977,"1076 Genesee, Buffalo, NY, USA"
9274 GROUP INC,1091 MAIN,Buffalo,140200,100.71-2-49.1,,9274 GROUP,-78.867913,42.903506,"1091 Main, Buffalo, NY, USA"
9274 GROUP  INC.,1115 MAIN,Buffalo,140200,100.71-2-49.2,,9274 GROUP,-78.867773,42.903789,"1115 Main, Buffalo, NY, USA"
9274 GROUP INC.,1336 HERTEL,Buffalo,140200,78.65-2-24,,9274 GROUP,-78.858581,42.948009,"1336 Hertel, Buffalo, NY, USA"
9274 GROUP INC,1370 BROADWAY,Buffalo,140200,112.23-2-19,,9274 GROUP,-78.824172,42.89611,"1370 Broadway, Buffalo, NY, USA"
9274 GROUP INC,148 GRANT,Buffalo,140200,99.27-9-5.11,,9274 GROUP,-78.891014,42.918059,"148 Grant, Buffalo, NY, USA"
9274 GROUP INC,184 SENECA,Buffalo,140200,111.71-7-4,,9274 GROUP,-78.869369,42.879669,"184 Seneca, Buffalo, NY, USA"
9274 GROUP INC,192 SENECA,Buffalo,140200,111.71-7-3,,9274 GROUP,-78.869099,42.879638,"192 Seneca, Buffalo, NY, USA"
9274 GROUP INC,198 SENECA,Buffalo,140200,111.71-7-2,,9274 GROUP,-78.868915,42.879605,"198 Seneca, Buffalo, NY, USA"
9274 GROUP INC,204 SENECA,Buffalo,140200,111.71-6-16.11,,9274 GROUP,-78.868697,42.879604,"204 Seneca, Buffalo, NY, USA"
9274 GROUP INC,208 SENECA,Buffalo,140200,111.71-6-15,,9274 GROUP,-78.868616,42.879564,"208 Seneca, Buffalo, NY, USA"
9274 GROUP INC,2160 GENESEE,Buffalo,140200,101.27-8-18,,9274 GROUP,-78.803254,42.917291,"2160 Genesee, Buffalo, NY, USA"
9274 GROUP INC,2474 BAILEY,Buffalo,140200,90.80-1-13.111,,9274 GROUP,-78.81414,42.922252,"2474 Bailey, Buffalo, NY, USA"
9274 GROUP INC,269 COLVIN,Buffalo,140200,78.65-2-25,,9274 GROUP,-78.858651,42.948206,"269 Colvin, Buffalo, NY, USA"
9274 GROUP INC,291 MICHIGAN,Buffalo,140200,111.71-7-1,,9274 GROUP,-78.869114,42.879886,"291 Michigan, Buffalo, NY, USA"
9274 GROUP INC,3050 UNION RD,Orchard Park,146089,152.12-2-17,,9274 GROUP,-75.4999,43.00035,"New York, USA"
9274 GROUP INC,3513 MCKINLEY PKWY,Hamburg,144889,160.07-2-20.1,,9274 GROUP,-78.810882,42.788998,"3513 McKinley Parkway, Hamburg, NY, USA"
9274 GROUP INC,399 JEFFERSON,Buffalo,140200,111.58-1-36,,9274 GROUP,-78.85359,42.885901,"399 Jefferson, Buffalo, NY, USA"
9274 GROUP INC,40 W MAIN ST,Concord,143801,335.19-3-7.1,,9274 GROUP,-74.079656,40.602486,"Concord, Staten Island, New York, NY, USA"
9274 GROUP INC,400 VIRGINIA ST,Buffalo,140200,111.21-4-12,,9274 GROUP,-78.876771,42.897552,"400 Virginia Street, Buffalo, NY, USA"
9274 GROUP INC - A NY CORP.,41 BUFFALO RD,Aurora,142401,164.19-1-15.11,,9274 GROUP,-78.630513,42.768594,"41 Buffalo Rd, East Aurora, NY, USA"
9274 GROUP  INC,476 WILLIAM,Buffalo,140200,111.58-1-25.1,,9274 GROUP,-78.853412,42.885525,"476 William, Buffalo, NY, USA"
9274 GROUP INC,5900 NEW TAYLOR RD,Orchard Park,146089,161.19-2-19.2,,9274 GROUP,-75.4999,43.00035,"New York, USA"
9274 GROUP  INC.,618 DELAWARE ST,Tonawanda,141600,53.29-6-29.1,,9274 GROUP,-78.875756,43.002584,"618 Delaware St, Tonawanda, NY, USA"
9274 GROUP INC,654 COLVIN BLVD,Tonawanda,146401,78.32-5-14.1,,9274 GROUP,-78.859185,42.959106,"654 Colvin Boulevard, Kenmore, NY, USA"
9274 GROUP INC,9062 ERIE RD,Evans,144489,235.00-3-12,,9274 GROUP,-79.04911,42.638107,"9062 Erie Road, Angola on the Lake, NY, USA"
9274 GROUP INC,S BENZING RD,Orchard Park,146089,161.06-1-2,,9274 GROUP,-75.4999,43.00035,"New York, USA"
ABBOTT FAIR  LLC,1404 ABBOTT RD,Lackawanna,140900,142.12-1-25.1,,ABBOTT FAIR,-78.803419,42.826374,"1404 Abbott Road, Lackawanna, NY, USA"
DELAWARE GROUP  INC,30 WIMBLEDON LN,West Seneca,146800,134.56-1-56,,DELAWARE GROUP,-78.772657,42.842157,"30 Wimbledon Ln, West Seneca, NY, USA"
DELAWARE GROUP INC,351 LINWOOD AVE,Buffalo,140200,100.39-2-20,,DELAWARE GROUP,-78.86739,42.91194,"351 Linwood Ave, Buffalo, NY, USA"
DELAWARE GROUP INC.,857 DELAWARE,Buffalo,140200,100.54-3-8,,DELAWARE GROUP,-78.870834,42.907388,"857 Delaware, Buffalo, NY, USA"
DELTUP LLC,344 DELAWARE,Buffalo,140200,111.29-6-3,,DELTUP,-78.876191,42.893889,"344 Delaware, Buffalo, NY, USA"
DELTUP LLC,65 TUPPER WEST,Buffalo,140200,111.30-1-12.1,,DELTUP,-78.874393,42.894038,"65 Tupper West, Buffalo, NY, USA"
ELLICOTT GROUP LLC,120 MYRTLE,Buffalo,140200,111.72-1-51,,ELLICOTT GROUP,-78.86498,42.879523,"120 Myrtle, Buffalo, NY, USA"
ELLICOTT GROUP LLC,122 MYRTLE,Buffalo,140200,111.72-1-50,,ELLICOTT GROUP,-78.864888,42.879506,"122 Myrtle, Buffalo, NY, USA"
ELLICOTT GROUP LLC,128 MYRTLE,Buffalo,140200,111.72-1-48,,ELLICOTT GROUP,-78.864693,42.879472,"128 Myrtle, Buffalo, NY, USA"
ELLICOTT GROUP LLC,135 CHICAGO,Buffalo,140200,122.31-3-23,,ELLICOTT GROUP,-78.867914,42.871809,"135 Chicago, Buffalo, NY, USA"
ELLICOTT GROUP  LLC,175 DIVISION SOUTH,Buffalo,140200,111.71-2-1.1,,ELLICOTT GROUP,-78.868702,42.881088,"175 Division South, Buffalo, NY, USA"
ELLICOTT GROUP LLC,222 MYRTLE,Buffalo,140200,111.72-2-24,,ELLICOTT GROUP,-78.861478,42.878915,"222 Myrtle, Buffalo, NY, USA"
ELLICOTT GROUP LLC,224 MYRTLE,Buffalo,140200,111.72-2-23,,ELLICOTT GROUP,-78.861402,42.878902,"224 Myrtle, Buffalo, NY, USA"
ELLICOTT GROUP LLC,282 MYRTLE,Buffalo,140200,111.81-1-29,,ELLICOTT GROUP,-78.859254,42.878527,"282 Myrtle, Buffalo, NY, USA"
ELLICOTT GROUP,283 MAIN,Buffalo,140200,111.13-24-1,,ELLICOTT GROUP,-78.874952,42.882177,"283 Main, Buffalo, NY, USA"
ELLICOTT GROUP LLC,321 SOUTH PARK,Buffalo,140200,122.31-3-3,,ELLICOTT GROUP,-78.872107,42.939282,"Park Meadow, Buffalo, NY, USA"
ELLICOTT GROUP LLC,329 SOUTH PARK,Buffalo,140200,122.31-3-4,,ELLICOTT GROUP,-78.872107,42.939282,"Park Meadow, Buffalo, NY, USA"
ELLICOTT GROUP LLC,331 SOUTH PARK,Buffalo,140200,122.31-3-5,,ELLICOTT GROUP,-78.872107,42.939282,"Park Meadow, Buffalo, NY, USA"
ELLICOTT GROUP LLC,333 SOUTH PARK,Buffalo,140200,122.31-3-6,,ELLICOTT GROUP,-78.872107,42.939282,"Park Meadow, Buffalo, NY, USA"
ELMWOOD VILLAGE PROPERTIES LLC,621 DELAVAN WEST,Buffalo,140200,89.78-1-54,,ELMWOOD VILLAGE PROPERTIES,-78.876182,42.921955,"621 Delavan West, Buffalo, NY, USA"
ELMWOOD VILLAGE PROPERTIES LLC,905 ELMWOOD,Buffalo,140200,89.78-1-51.1,,ELMWOOD VILLAGE PROPERTIES,-78.876665,42.921949,"905 Elmwood, Buffalo, NY, USA"
FASO GROUP  LLC,200 ONTARIO,Buffalo,140200,77.57-7-16,,FASO GROUP,-78.903545,42.950427,"200 Ontario, Buffalo, NY, USA"
FASO GROUP LLC,204 ONTARIO,Buffalo,140200,77.57-7-15,,FASO GROUP,-78.90348,42.950507,"204 Ontario, Buffalo, NY, USA"
FASO GROUP  LLC,208 ONTARIO,Buffalo,140200,77.57-7-13,,FASO GROUP,-78.903374,42.950669,"208 Ontario, Buffalo, NY, USA"
GRACE MANOR  LLC,310 NORTH ST,Buffalo,140200,100.69-1-1.11,,GRACE MANOR,-78.881127,42.901786,"310 North Street, Buffalo, NY, USA"
GRACE MANOR  LLC,47 WADSWORTH,Buffalo,140200,100.69-2-9,,GRACE MANOR,-78.880623,42.900892,"47 Wadsworth, Buffalo, NY, USA"
HURON GROUP INC,1 BEAN,Buffalo,140200,111.45-3-10,,HURON GROUP,-78.876467,42.888047,"1 Bean, Buffalo, NY, USA"
HURON GROUP INC,166 FRANKLIN,Buffalo,140200,111.45-3-9,,HURON GROUP,-78.876387,42.887827,"166 Franklin, Buffalo, NY, USA"
HURON GROUP INC,172 FRANKLIN,Buffalo,140200,111.45-3-8,,HURON GROUP,-78.876347,42.887951,"172 Franklin, Buffalo, NY, USA"
HURON GROUP INC,176 FRANKLIN,Buffalo,140200,111.45-3-6.1,,HURON GROUP,-78.876237,42.888077,"176 Franklin, Buffalo, NY, USA"
HURON GROUP INC,178 FRANKLIN,Buffalo,140200,111.45-3-6.2,,HURON GROUP,-78.876444,42.888116,"178 Franklin, Buffalo, NY, USA"
J P GROUP,1018 BROADWAY,Buffalo,140200,111.36-6-15.1,,J P GROUP,-78.836901,42.89405,"1018 Broadway, Buffalo, NY, USA"
J P GROUP,1040 BROADWAY,Buffalo,140200,112.29-1-1.11,,J P GROUP,-78.836241,42.894005,"1040 Broadway, Buffalo, NY, USA"
J-P GROUP LLC,1098 KENSINGTON,Buffalo,140200,90.32-6-29,,J-P GROUP,-78.814213,42.938051,"1098 Kensington, Buffalo, NY, USA"
J-P GROUP,1140 MICHIGAN,Buffalo,140200,100.64-5-25,,J-P GROUP,-78.862871,42.904185,"1140 Michigan, Buffalo, NY, USA"
J-P GROUP LLC,1144 MICHIGAN,Buffalo,140200,100.64-5-24,,J-P GROUP,-78.862867,42.904409,"1144 Michigan, Buffalo, NY, USA"
J-P GROUP,2025 SHERIDAN DR,Tonawanda,146489,66.40-1-8,,J-P GROUP,-78.859101,42.980443,"2025 Sheridan Dr, Tonawanda, NY, USA"
J-P GROUP,242 WILLIAM,Buffalo,140200,111.56-2-34,,J-P GROUP,-78.862614,42.885255,"242 William, Buffalo, NY, USA"
J-P GROUP  LLC,336 DINGENS,Buffalo,140200,112.19-3-7.2,,J-P GROUP,-78.803608,42.878158,"336 Dingens, Buffalo, NY, USA"
J-P GROUP,736 DELAVAN EAST,Buffalo,140200,90.70-2-15.11,,J-P GROUP,-78.829568,42.922409,"736 Delavan East, Buffalo, NY, USA"
JEFFERSON-UTICA GROUP INC.,1289 JEFFERSON,Buffalo,140200,100.50-1-1.11,,JEFFERSON-UTICA GROUP,-78.853241,42.910639,"1289 Jefferson, Buffalo, NY, USA"
JP GROUP,1017 BROADWAY,Buffalo,140200,112.29-10-1,,JP GROUP,-78.836959,42.893222,"1017 Broadway, Buffalo, NY, USA"
JP GROUP,1102 KENSINGTON,Buffalo,140200,90.32-6-24.1,,JP GROUP,-78.814063,42.938243,"1102 Kensington, Buffalo, NY, USA"
JP GROUP,284 FERRY WEST,Buffalo,140200,99.35-8-18.1,,JP GROUP,-78.890972,42.915504,"284 Ferry West, Buffalo, NY, USA"
JP GROUP  LLC,3074 BAILEY,Buffalo,140200,90.32-6-26,,JP GROUP,-78.813931,42.938429,"3074 Bailey, Buffalo, NY, USA"
JP GROUP,330 DINGENS,Buffalo,140200,112.19-3-7.1,,JP GROUP,-78.803313,42.878662,"330 Dingens, Buffalo, NY, USA"
JP GROUP,91 GRANT,Buffalo,140200,99.35-2-1.1,,JP GROUP,-78.890196,42.916493,"91 Grant, Buffalo, NY, USA"
JP GROUP,977 BROADWAY,Buffalo,140200,111.36-4-26.1,,JP GROUP,-78.838314,42.892874,"977 Broadway, Buffalo, NY, USA"
LINWOOD GROUP LLC,68 BARKER,Buffalo,140200,100.63-4-1,,LINWOOD GROUP,-78.870112,42.906316,"68 Barker, Buffalo, NY, USA"
LOS ROBLES GROUP LLC,5447-5455 MAIN ST,Amherst,142201,80.08-4-2.11,,LOS ROBLES GROUP,-78.79976,42.97839,"Amherst, NY, USA"
MAGLIANO GROUP LLC,5560 ARMOR DUELLS RD,Orchard Park,146089,172.00-2-3.1,,MAGLIANO GROUP,-75.4999,43.00035,"New York, USA"
MAGLIANO GROUP LLC,ARMOR DUELLS RD,Orchard Park,146089,172.00-2-16.11,,MAGLIANO GROUP,-75.4999,43.00035,"New York, USA"
MAGLIANO GROUP LLC,BUSSENDORFER RD,Orchard Park,146089,172.00-2-8.21,,MAGLIANO GROUP,-75.4999,43.00035,"New York, USA"
MICHIGAN SENECA GROUP INC,260 MICHIGAN,Buffalo,140200,111.70-7-2.11,,MICHIGAN SENECA GROUP,-78.870533,42.87865,"260 Michigan, Buffalo, NY, USA"
MICHIGAN-SENECA GROUP INC,166 SENECA,Buffalo,140200,111.70-5-9,,MICHIGAN-SENECA GROUP,-78.87028,42.879855,"166 Seneca, Buffalo, NY, USA"
MICHIGAN-SENECA GROUP INC,270 MICHIGAN,Buffalo,140200,111.70-7-2.12,,MICHIGAN-SENECA GROUP,-78.870811,42.879147,"270 Michigan, Buffalo, NY, USA"
MICHIGAN-SENECA GROUP INC,9 NICHOLS,Buffalo,140200,111.70-5-10,,MICHIGAN-SENECA GROUP,-78.87016,42.880057,"9 Nichols, Buffalo, NY, USA"
MOHAWK GROUP,478 MAIN,Buffalo,140200,111.13-5-1.1,,MOHAWK GROUP,-78.874567,42.887103,"478 Main, Buffalo, NY, USA"
NIAGARA GROUP  L.P.,68 ELMWOOD SOUTH,Buffalo,140200,111.45-6-3.1,,NIAGARA GROUP,-75.4999,43.00035,"New York, USA"
PALADINO 2000 TRUST,19 HILLERY,Buffalo,140200,123.20-3-2.131,,PALADINO 2000 TRUST,-78.801891,42.858032,"19 Hillery, Buffalo, NY, USA"
PALADINO 2000 TRUST,40 DEER RUN,Orchard Park,146089,173.19-1-24,,PALADINO 2000 TRUST,-78.724058,42.748005,"40 Deer Run, Orchard Park, NY, USA"
PALADINO CARL P,1541 SENECA,Buffalo,140200,123.47-4-7,,PALADINO CARL P,-78.822702,42.865823,"1541 Seneca, Buffalo, NY, USA"
PALADINO CARL P.,1561 SENECA,Buffalo,140200,123.47-4-8,,PALADINO CARL P,-78.822582,42.865747,"1561 Seneca, Buffalo, NY, USA"
PALADINO CARL P,166 BROADWAY,Buffalo,140200,111.47-5-25,,PALADINO CARL P,-78.867101,42.887212,"166 Broadway, Buffalo, NY, USA"
PALADINO CARL P,249 BROADWAY,Buffalo,140200,111.56-2-2,,PALADINO CARL P,-78.863925,42.887336,"249 Broadway, Buffalo, NY, USA"
PALADINO CARL P.,267 BROADWAY,Buffalo,140200,111.56-2-5,,PALADINO CARL P,-78.863486,42.887433,"267 Broadway, Buffalo, NY, USA"
PALADINO CARL P.,269 BROADWAY,Buffalo,140200,111.56-2-6,,PALADINO CARL P,-78.863345,42.887465,"269 Broadway, Buffalo, NY, USA"
PALADINO CARL P,309 NIAGARA,Buffalo,140200,110.36-7-1,,PALADINO CARL P,-78.883807,42.892943,"309 Niagara, Buffalo, NY, USA"
PALADINO CARL P,549 MICHIGAN,Buffalo,140200,111.47-5-27,,PALADINO CARL P,-78.866925,42.887436,"549 Michigan, Buffalo, NY, USA"
PALADINO CARL P,555 MICHIGAN,Buffalo,140200,111.47-5-29,,PALADINO CARL P,-78.866811,42.887583,"555 Michigan, Buffalo, NY, USA"
PEARL GROUP  LLC,500 PEARL ST,Buffalo,140200,111.30-6-23,,PEARL GROUP,-78.873847,42.893155,"500 Pearl St, Buffalo, NY, USA"
PEARL GROUP  LLC,512 PEARL ST,Buffalo,140200,111.30-6-14,,PEARL GROUP,-78.873374,42.893207,"512 Pearl Street, Buffalo, NY, USA"
RENSCH GROUP LLC,1290 SWEET HOME RD,Amherst,142289,54.12-1-22.21,,RENSCH GROUP,-78.801623,42.996984,"1290 Sweet Home Rd, Amherst, NY, USA"
RENSCH GROUP LLC,3945 RENSCH RD,Amherst,142289,54.12-1-21.2,,RENSCH GROUP,-78.801633,42.99765,"3945 Rensch Road, Amherst, NY, USA"
SENECA STREET PROPERTIES,100 SENECA,Buffalo,140200,111.70-4-7.1,,SENECA STREET PROPERTIES,-78.871908,42.880603,"100 Seneca, Buffalo, NY, USA"
SHOSHONE GROUP  LLC,1902 HERTEL,Buffalo,140200,79.61-1-2,,SHOSHONE GROUP,-78.836507,42.948456,"1902 Hertel, Buffalo, NY, USA"
SLADE GROUP LLC,10 SLADE AVE,West Seneca,146800,143.05-1-1.1,,SLADE GROUP,-78.788201,42.829511,"10 Slade Avenue, West Seneca, NY, USA"
SLADE GROUP LLC,1750 RIDGE RD,West Seneca,146800,143.05-1-1.2,,SLADE GROUP,-78.757087,42.834151,"West Seneca, NY, USA"
SLADE POTTER LLC,140 SLADE AVE,West Seneca,146800,143.05-1-20,,SLADE POTTER,-78.789798,42.832346,"140 Slade Ave, West Seneca, NY, USA"
SLADE POTTERS LLC,154 SLADE AVE,West Seneca,146800,143.05-1-22,,SLADE POTTER,-78.7895,42.832635,"154 Slade Avenue, West Seneca, NY, USA"
SLADE POTTERS  LLC,160 SLADE AVE,West Seneca,146800,143.05-1-24,,SLADE POTTER,-78.789774,42.832895,"160 Slade Ave, West Seneca, NY, USA"
SLADE POTTERS LLC,154 SLADE AVE,West Seneca,146800,143.05-1-22,,SLADE POTTERS,-78.7895,42.832635,"154 Slade Avenue, West Seneca, NY, USA"
SLADE POTTERS  LLC,160 SLADE AVE,West Seneca,146800,143.05-1-24,,SLADE POTTERS,-78.789774,42.832895,"160 Slade Ave, West Seneca, NY, USA"
SLADE-POTTERS  LLC,116 SLADE AVE,West Seneca,146800,143.05-1-16,,SLADE-POTTER,-78.789552,42.831811,"116 Slade Avenue, West Seneca, NY, USA"
SLADE-POTTERS LLC,126 SLADE AVE,West Seneca,146800,143.05-1-18,,SLADE-POTTER,-78.789517,42.832072,"126 Slade Avenue, West Seneca, NY, USA"
SLADE-POTTERS  LLC,144 SLADE AVE,West Seneca,146800,143.05-1-21,,SLADE-POTTER,-78.789539,42.832466,"144 Slade Avenue, West Seneca, NY, USA"
SLADE-POTTERS  LLC,158 SLADE AVE,West Seneca,146800,143.05-1-23,,SLADE-POTTER,-78.789491,42.832782,"158 Slade Avenue, West Seneca, NY, USA"
SLADE-POTTER LLC,162 SLADE AVE,West Seneca,146800,143.05-1-25.1,,SLADE-POTTER,-78.789765,42.833102,"162 Slade Ave, West Seneca, NY, USA"
SLADE-POTTERS LLC,164 SLADE AVE,West Seneca,146800,143.05-5-1,,SLADE-POTTER,-78.790781,42.832646,"164B Slade Avenue, West Seneca, NY, USA"
SLADE-POTTERS LLC,60 SLADE AVE,West Seneca,146800,143.05-1-5,,SLADE-POTTER,-78.789573,42.830294,"60 Slade Avenue, West Seneca, NY, USA"
SLADE-POTTERS LLC,80 SLADE AVE,West Seneca,146800,143.05-1-9,,SLADE-POTTER,-78.789545,42.830836,"80 Slade Avenue, West Seneca, NY, USA"
SLADE-POTTERS  LLC,116 SLADE AVE,West Seneca,146800,143.05-1-16,,SLADE-POTTERS,-78.789552,42.831811,"116 Slade Avenue, West Seneca, NY, USA"
SLADE-POTTERS LLC,126 SLADE AVE,West Seneca,146800,143.05-1-18,,SLADE-POTTERS,-78.789517,42.832072,"126 Slade Avenue, West Seneca, NY, USA"
SLADE-POTTERS  LLC,144 SLADE AVE,West Seneca,146800,143.05-1-21,,SLADE-POTTERS,-78.789539,42.832466,"144 Slade Avenue, West Seneca, NY, USA"
SLADE-POTTERS  LLC,158 SLADE AVE,West Seneca,146800,143.05-1-23,,SLADE-POTTERS,-78.789491,42.832782,"158 Slade Avenue, West Seneca, NY, USA"
SLADE-POTTERS LLC,164 SLADE AVE,West Seneca,146800,143.05-5-1,,SLADE-POTTERS,-78.790781,42.832646,"164B Slade Avenue, West Seneca, NY, USA"
SLADE-POTTERS LLC,60 SLADE AVE,West Seneca,146800,143.05-1-5,,SLADE-POTTERS,-78.789573,42.830294,"60 Slade Avenue, West Seneca, NY, USA"
SLADE-POTTERS LLC,80 SLADE AVE,West Seneca,146800,143.05-1-9,,SLADE-POTTERS,-78.789545,42.830836,"80 Slade Avenue, West Seneca, NY, USA"
ST PAUL GROUP LLC,34 ST PAUL,Buffalo,140200,100.71-2-15,,ST PAUL GROUP,-75.4999,43.00035,"New York, USA"
ST PAUL GROUP LLC,38 ST PAUL,Buffalo,140200,100.71-2-13,,ST PAUL GROUP,-75.4999,43.00035,"New York, USA"
STAATS STREET GROUP LLC,30 STAATS,Buffalo,140200,111.45-6-2.11,,STAATS STREET GROUP,-78.880721,42.887868,"30 Staats Street, Buffalo, NY, USA"
SWAN GROUP LIMITED PARTNERSHIP,270 MAIN,Buffalo,140200,111.69-3-1,,SWAN GROUP LIMITED PARTNERSHIP,-78.876279,42.881777,"270 Main, Buffalo, NY, USA"
TUPPER GROUP INC,357 DELAWARE,Buffalo,140200,111.30-1-17.11,,TUPPER GROUP,-78.87494,42.894131,"357 Delaware, Buffalo, NY, USA"
WEBSTER BLOCK LLC,3854 N BUFFALO RD,Orchard Park,146089,162.09-1-21,,WEBSTER BLOCK,-75.4999,43.00035,"New York, USA"
WEBSTER BLOCK LLC,3858 N BUFFALO RD,Orchard Park,146089,162.09-1-22.1,,WEBSTER BLOCK,-75.4999,43.00035,"New York, USA"
WEBSTER BLOCK LLC,3876 N BUFFALO RD,Orchard Park,146089,162.09-1-25,,WEBSTER BLOCK,-75.4999,43.00035,"New York, USA"
WEBSTER BLOCK LLC,3890 N BUFFALO RD,Orchard Park,146089,162.09-1-27,,WEBSTER BLOCK,-75.4999,43.00035,"New York, USA"
WEBSTER BLOCK LLC,635 SOUTH PARK,Buffalo,140200,122.41-3-1.2,,WEBSTER BLOCK,-78.872107,42.939282,"Park Meadow, Buffalo, NY, USA"
WEBSTER BLOCK LLC,HOLLAND LN,Orchard Park,146089,161.16-1-3.11,,WEBSTER BLOCK,-78.746197,42.752053,"Orchard Park, NY, USA"
WEBSTER BLOCK LLC,N BUFFALO RD,Orchard Park,146089,162.09-1-14,,WEBSTER BLOCK,-75.4999,43.00035,"New York, USA"
WEBSTER BLOCK LLC,WEBSTER RD,Orchard Park,146089,161.00-3-27.2,,WEBSTER BLOCK,-75.4999,43.00035,"New York, USA"
WILLIAM S BEARSS TRUST FBO,200 PERRY,Buffalo,140200,122.23-1-5.1,,WILLIAM S BEARSS TRUST,-78.86971,42.874999,"200 Perry, Buffalo, NY, USA"
